{
  "norad_id": 53787,
  "name": "STARLINK-4743",
  "history": [
    {
      "epoch": "2026-03-28T19:14:06.473184Z",
      "apogee_km": 540.5801107086427,
      "perigee_km": 538.8791456621038,
      "latitude_deg": 1.1788255854537517e-06,
      "longitude_deg": 73.42023461046023,
      "height_km": 540.6348321012118,
      "semi_major_axis_km": 6917.866628185373,
      "eccentricity": 0.00012294,
      "inclination_deg": 53.2158,
      "raan_deg": 188.1639,
      "arg_perigee_deg": 90.6391,
      "mean_anomaly_deg": 269.4742,
      "mean_motion_rev_day": 15.08844502
    }
  ]
}